BEIDOU-2 M4             
1 38251U 12018B   26162.21442390 -.00000065  00000+0  00000+0 0  9993
2 38251  55.6637 304.2914 0011156 276.7373  83.1206  1.86229745 95834
ARIRANG-3 (KOMPSAT-3)   
1 38338U 12025B   26162.69511556  .00000362  00000+0  81032-4 0  9998
2 38338  98.1175 120.2499 0006463 123.2999 236.8822 14.62201378750545
METOP-B                 
1 38771U 12049A   26162.69909931  .00000086  00000+0  59179-4 0  9993
2 38771  98.6506 214.3076 0002565  32.8216 327.3121 14.21431239712486
SJ-9A                   
1 38860U 12056A   26162.64093131  .00001087  00000+0  13152-3 0  9993
2 38860  97.6706 134.7930 0023958 276.1599  83.6887 14.85468812698768
COSMOS 2484 (RODNIK-S 6)
1 39059U 13001C   26162.75300966  .00000042  00000+0  23075-3 0  9999
2 39059  82.5021 225.2707 0027078  48.2054 312.1332 12.42938895607883
SARAL                   
1 39086U 13009A   26162.66394751  .00000084  00000+0  46749-4 0  9992
2 39086  98.5557 349.3012 0000999 339.3668  20.7476 14.32854582694810
STRAND-1                
1 39090U 13009E   26162.48626012  .00000258  00000+0  10129-3 0  9990
2 39090  98.3921 342.8611 0007504 244.6927 115.3483 14.37160014696249
BRITE-AUSTRIA           
1 39091U 13009F   26162.42702338  .00000141  00000+0  62670-4 0  9991
2 39091  98.3993 342.0054 0008992 255.9460 104.0727 14.36539758696229
GAOFEN-1                
1 39150U 13018A   26162.70939000  .00000570  00000+0  88902-4 0  9998
2 39150  97.9095 234.8885 0015747 285.7511  74.1962 14.76532352707438
NEE-01 PEGASO           
1 39151U 13018B   26162.37036833  .00001781  00000+0  17424-3 0  9999
2 39151  98.1214 306.3290 0012644 177.4473 182.6812 14.93633706709836
PROBA-V                 
1 39159U 13021A   26162.49637247  .00000065  00000+0  46357-4 0  9992
2 39159  98.3582 141.3840 0004918 136.9652 223.1913 14.23595841680309
ARIRANG-5 (KOMPSAT-5)   
1 39227U 13042A   26162.71231168  .00001486  00000+0  11054-3 0  9991
2 39227  97.6217 349.4905 0004830 135.0499 225.1119 15.04477821703030
GONETS-M 5              
1 39249U 13048A   26162.72162476  .00000051  00000+0  30075-3 0  9998
2 39249  82.4835 346.7910 0015876 222.9142 137.0700 12.42891588578206
GONETS-M 7              
1 39251U 13048C   26162.76517769  .00000000  00000+0 -70910-4 0  9992
2 39251  82.4903 349.6833 0016667 224.2214 135.7534 12.42914243578164
FENGYUN 3C              
1 39260U 13052A   26162.74330058  .00000077  00000+0  60414-4 0  9990
2 39260  98.4976 136.8682 0015514  42.5640 317.6734 14.15753860657791
CASSIOPE                
1 39265U 13055A   26162.65031969  .00042906 -55598-6  47092-3 0  9990
2 39265  80.9146  73.4416 0294765  80.9999 282.4467 15.24672257666829
APRIZESAT 7             
1 39416U 13066A   26162.65293764  .00000765  00000+0  81280-4 0  9998
2 39416  97.7707 115.9525 0034594 228.0546 131.7722 14.91552443680401
ZACUBE-1 (TSHEPISOSAT)  
1 39417U 13066B   26162.47489693  .00002775  00000+0  21784-3 0  9992
2 39417  97.8085 124.7807 0040210 267.7109  91.9510 15.01152947679878
APRIZESAT 8             
1 39425U 13066K   26162.08792428  .00000874  00000+0  10067-3 0  9991
2 39425  97.8220 109.6410 0044691 307.2502  52.4642 14.87640786678765
TRITON-1                
1 39427U 13066M   26162.69048841  .00001187  00000+0  14795-3 0  9993
2 39427  97.8249  72.6223 0088378 252.1224 107.0336 14.81684819673275
